SCD 1                   
1 22490U 93009B   26198.52395882  .00000295  00000+0  29805-4 0  9999
2 22490  24.9706  20.2626 0042084  99.0699 295.2255 14.46129134765514
TECHSAT 1B (GO-32)      
1 25397U 98043D   26198.40930574  .00000005  00000+0  22342-4 0  9999
2 25397  99.0087 191.9327 0002250 111.4345 248.7073 14.24433604455636
SCD 2                   
1 25504U 98060A   26198.48778265  .00000265  00000+0  23135-4 0  9992
2 25504  24.9942 245.2984 0017010  83.4153  51.9653 14.45535234464712
DLR-TUBSAT              
1 25757U 99029B   26198.26062589 -.00000003  00000+0  11152-4 0  9996
2 25757  98.6712 194.7566 0012993 257.8987 102.0752 14.52433472437612
TERRA                   
1 25994U 99068A   26198.64676432  .00000157  00000+0  40921-4 0  9997
2 25994  97.9440 246.9828 0003502 117.8782  37.1255 14.61124733414056
MAROC-TUBSAT            
1 27004U 01056D   26198.44357692 -.00000043  00000+0  38696-5 0  9995
2 27004  99.8100  15.8757 0020571  66.5443 323.2177 13.70263593230333
AQUA                    
1 27424U 02022A   26198.58046432  .00000321  00000+0  73618-4 0  9997
2 27424  98.4298 168.4748 0001229 101.3800 349.9230 14.62130356287712
SHIYAN-1 (SY-1)         
1 28220U 04012A   26198.18696479  .00007510  00000+0  22745-3 0  9992
2 28220  97.8684 278.2199 0004117 265.4291  94.6480 15.34483845215697
AURA                    
1 28376U 04026A   26198.59234509  .00000333  00000+0  77061-4 0  9994
2 28376  98.3431 155.3010 0001350  93.6072 266.5283 14.61369645170653
IRS-P5 (CARTOSAT-1)     
1 28649U 05017A   26198.07504432  .00000742  00000+0  80128-4 0  9998
2 28649  97.5306 219.7839 0001284  50.7607 309.3726 14.91119788148271
SINAH 1                 
1 28893U 05043D   26198.60162673  .00000120  00000+0  32131-4 0  9995
2 28893  98.2897 333.1088 0014565 176.0150 184.1171 14.64176288104973
RESURS-DK 1             
1 29228U 06021A   26198.57387977  .00000854  00000+0  53922-4 0  9992
2 29228  69.9305 260.8870 0007238 268.3876  91.6461 15.13323561107171
ARIRANG-2 (KOMPSAT-2)   
1 29268U 06031A   26198.63051404  .00000059  00000+0  19482-4 0  9997
2 29268  97.8310  21.6049 0014029 343.0013 106.5783 14.64676199 65935
LAPAN-TUBSAT            
1 29709U 07001A   26198.62349956  .00000558  00000+0  70382-4 0  9996
2 29709  98.1348 198.5360 0013616  86.7167 273.5605 14.85978295 55675
HAIYANG-1B              
1 31113U 07010A   26197.93073682  .00000029  00000+0  26942-4 0  9997
2 31113  98.3516 178.6253 0014687 111.0193 249.2564 14.31033589  4897
COSMO-SKYMED 1          
1 31598U 07023A   26198.61131774  .00001496  00000+0  13445-3 0  9993
2 31598  97.8848  30.7247 0001620 101.4801 258.6603 14.97226609 34349
TERRASAR-X              
1 31698U 07026A   26188.47915537  .00000240  00000+0  14624-4 0  9994
2 31698  97.4461 195.8972 0001878  86.9540 273.1909 15.19153986 56300
WORLDVIEW-1 (WV-1)      
1 32060U 07041A   26198.55227709  .00003035  00000+0  12608-3 0  9996
2 32060  97.3908 317.8708 0001752 195.4711 164.6473 15.24573511 47507
YAOGAN-3                
1 32289U 07055A   26198.59880513  .00000436  00000+0  49918-4 0  9993
2 32289  97.8139 228.1764 0001523  75.7454 284.3934 14.90886179 10407
COSMO-SKYMED 2          
1 32376U 07059A   26198.60830037  .00000142  00000+0  24352-4 0  9991
2 32376  97.8895  21.7663 0001457  93.9176 266.2204 14.82151543  6514
RADARSAT-2              
1 32382U 07061A   26198.61508034  .00000029  00000+0  28014-4 0  9994
2 32382  98.5780 205.1134 0001305  83.7423 276.3908 14.29983719970306
CARTOSAT-2A             
1 32783U 08021A   26198.62098162  .00000393  00000+0  59496-4 0  9995
2 32783  97.7611 246.2887 0012310  19.7988 340.3699 14.79278140983302
HUANJING 1A (HJ-1A)     
1 33320U 08041A   26198.64283725  .00000599  00000+0  77852-4 0  9992
2 33320  97.6698 183.3071 0020153  42.1213 318.1547 14.84051250962922
HUANJING 1B (HJ-1B)     
1 33321U 08041B   26198.62590733 -.00000090  00000+0 -45492-5 0  9995
2 33321  97.6534 186.3700 0037981  83.5441 277.0096 14.83366370962926
GEOEYE 1                
1 33331U 08042A   26198.62066786  .00000154  00000+0  37989-4 0  9993
2 33331  98.1326 272.1881 0003771 338.1957  21.9084 14.64650390954603
THEOS                   
1 33396U 08049A   26198.61709253  .00000144  00000+0  87415-4 0  9991
2 33396  98.5553 254.9103 0001107  88.5622 271.5682 14.20137803922288
COSMO-SKYMED 3          
1 33412U 08054A   26198.61923729  .00002316  00000+0  15817-3 0  9991
2 33412  97.8245  57.6925 0015971 158.5834 201.6064 15.07125984961525
YAOGAN-4                
1 33446U 08061A   26198.52478976  .00000438  00000+0  60171-4 0  9992
2 33446  97.9303 131.8124 0013631 337.8132  22.2490 14.83253518950164
GOSAT (IBUKI)           
1 33492U 09002A   26198.27487925  .00000285  00000+0  58810-4 0  9992
2 33492  98.0915 308.9825 0001128  88.9668 271.1666 14.67541047935877
DEIMOS-1                
1 35681U 09041A   26198.57255623 -.00000027  00000+0  30426-5 0  9997
2 35681  97.7435 354.4881 0002791  89.4015 270.7514 14.75264386911361
