OBJECT_NAME,OBJECT_ID,EPOCH,MEAN_MOTION,ECCENTRICITY,INCLINATION,RA_OF_ASC_NODE,ARG_OF_PERICENTER,MEAN_ANOMALY,EPHEMERIS_TYPE,CLASSIFICATION_TYPE,NORAD_CAT_ID,ELEMENT_SET_NO,REV_AT_EPOCH,BSTAR,MEAN_MOTION_DOT,MEAN_MOTION_DDOT
SCD 1,1993-009B,2026-07-17T12:34:30.042048,14.46129134,.00420843,24.9706,20.2626,99.0699,295.2255,0,U,22490,999,76551,.29804717E-4,.295E-5,0
TECHSAT 1B (GO-32),1998-043D,2026-07-17T09:49:24.015936,14.24433604,.00022502,99.0087,191.9327,111.4345,248.7073,0,U,25397,999,45563,.22342299E-4,.5E-7,0
SCD 2,1998-060A,2026-07-17T11:42:24.420960,14.45535234,.00170104,24.9942,245.2984,83.4153,51.9653,0,U,25504,999,46471,.23135216E-4,.265E-5,0
DLR-TUBSAT,1999-029B,2026-07-17T06:15:18.076896,14.52433472,.00129938,98.6712,194.7566,257.8987,102.0752,0,U,25757,999,43761,.11152208E-4,-.3E-7,0
TERRA,1999-068A,2026-07-17T15:31:20.437248,14.61124733,.00035023,97.9440,246.9828,117.8782,37.1255,0,U,25994,999,41405,.40921451E-4,.157E-5,0
MAROC-TUBSAT,2001-056D,2026-07-17T10:38:45.045888,13.70263593,.00205715,99.8100,15.8757,66.5443,323.2177,0,U,27004,999,23033,.3869608E-5,-.43E-6,0
AQUA,2002-022A,2026-07-17T13:55:52.117248,14.62130356,.00012297,98.4298,168.4748,101.3800,349.9230,0,U,27424,999,28771,.7361784E-4,.321E-5,0
SHIYAN-1 (SY-1),2004-012A,2026-07-17T04:29:13.757856,15.34483845,.00041172,97.8684,278.2199,265.4291,94.6480,0,U,28220,999,21569,.2274483E-3,.751E-4,0
AURA,2004-026A,2026-07-17T14:12:58.615776,14.61369645,.00013504,98.3431,155.3010,93.6072,266.5283,0,U,28376,999,17065,.77061327E-4,.333E-5,0
IRS-P5 (CARTOSAT-1),2005-017A,2026-07-17T01:48:03.829248,14.91119788,.00012842,97.5306,219.7839,50.7607,309.3726,0,U,28649,999,14827,.80127755E-4,.742E-5,0
SINAH 1,2005-043D,2026-07-17T14:26:20.549472,14.64176288,.00145653,98.2897,333.1088,176.0150,184.1171,0,U,28893,999,10497,.32130872E-4,.12E-5,0
RESURS-DK 1,2006-021A,2026-07-17T13:46:23.212128,15.13323561,.00072386,69.9305,260.8870,268.3876,91.6461,0,U,29228,999,10717,.53921972E-4,.854E-5,0
ARIRANG-2 (KOMPSAT-2),2006-031A,2026-07-17T15:07:56.413056,14.64676199,.00140292,97.8310,21.6049,343.0013,106.5783,0,U,29268,999,6593,.19481892E-4,.59E-6,0
LAPAN-TUBSAT,2007-001A,2026-07-17T14:57:50.361984,14.85978295,.00136168,98.1348,198.5360,86.7167,273.5605,0,U,29709,999,5567,.70381652E-4,.558E-5,0
HAIYANG-1B,2007-010A,2026-07-16T22:20:15.661248,14.31033589,.00146873,98.3516,178.6253,111.0193,249.2564,0,U,31113,999,489,.26942072E-4,.29E-6,0
COSMO-SKYMED 1,2007-023A,2026-07-17T14:40:17.852736,14.97226609,.00016205,97.8848,30.7247,101.4801,258.6603,0,U,31598,999,3434,.13444576E-3,.1496E-4,0
TERRASAR-X,2007-026A,2026-07-07T11:29:59.023968,15.19153986,.0001878,97.4461,195.8972,86.9540,273.1909,0,U,31698,999,5630,.14624E-4,.24E-5,0
WORLDVIEW-1 (WV-1),2007-041A,2026-07-17T13:15:16.740576,15.24573511,.00017526,97.3908,317.8708,195.4711,164.6473,0,U,32060,999,4750,.1260816E-3,.3035E-4,0
YAOGAN-3,2007-055A,2026-07-17T14:22:16.763232,14.90886179,.00015232,97.8139,228.1764,75.7454,284.3934,0,U,32289,999,1040,.49918392E-4,.436E-5,0
COSMO-SKYMED 2,2007-059A,2026-07-17T14:35:57.151968,14.82151543,.00014572,97.8895,21.7663,93.9176,266.2204,0,U,32376,999,651,.24351736E-4,.142E-5,0
RADARSAT-2,2007-061A,2026-07-17T14:45:42.941376,14.29983719,.00013052,98.5780,205.1134,83.7423,276.3908,0,U,32382,999,97030,.28013888E-4,.29E-6,0
CARTOSAT-2A,2008-021A,2026-07-17T14:54:12.811968,14.79278140,.00123101,97.7611,246.2887,19.7988,340.3699,0,U,32783,999,98330,.59495584E-4,.393E-5,0
HUANJING 1A (HJ-1A),2008-041A,2026-07-17T15:25:41.138400,14.84051250,.00201539,97.6698,183.3071,42.1213,318.1547,0,U,33320,999,96292,.77851516E-4,.599E-5,0
HUANJING 1B (HJ-1B),2008-041B,2026-07-17T15:01:18.393312,14.83366370,.00379819,97.6534,186.3700,83.5441,277.0096,0,U,33321,999,96292,-.454918E-5,-.9E-6,0
GEOEYE 1,2008-042A,2026-07-17T14:53:45.703104,14.64650390,.00037718,98.1326,272.1881,338.1957,21.9084,0,U,33331,999,95460,.37988791E-4,.154E-5,0
THEOS,2008-049A,2026-07-17T14:48:36.794592,14.20137803,.00011079,98.5553,254.9103,88.5622,271.5682,0,U,33396,999,92228,.87415404E-4,.144E-5,0
COSMO-SKYMED 3,2008-054A,2026-07-17T14:51:42.101856,15.07125984,.00159719,97.8245,57.6925,158.5834,201.6064,0,U,33412,999,96152,.15817255E-3,.2316E-4,0
YAOGAN-4,2008-061A,2026-07-17T12:35:41.835264,14.83253518,.00136316,97.9303,131.8124,337.8132,22.2490,0,U,33446,999,95016,.60171464E-4,.438E-5,0
GOSAT (IBUKI),2009-002A,2026-07-17T06:35:49.567200,14.67541047,.00011287,98.0915,308.9825,88.9668,271.1666,0,U,33492,999,93587,.58810412E-4,.285E-5,0
DEIMOS-1,2009-041A,2026-07-17T13:44:28.858272,14.75264386,.00027915,97.7435,354.4881,89.4015,270.7514,0,U,35681,999,91136,.3042584E-5,-.27E-6,0
